{
    "links": {
        "self": "http://www.neowsapp.com/rest/v1/neo/3869338?api_key=iIulBulltgU6a56xZRHN4H3l9WmuAYTsLGpBGhQ2"
    },
    "id": "3869338",
    "neo_reference_id": "3869338",
    "name": "(2019 SJ6)",
    "designation": "2019 SJ6",
    "nasa_jpl_url": "http://ssd.jpl.nasa.gov/sbdb.cgi?sstr=3869338",
    "absolute_magnitude_h": 25.6,
    "estimated_diameter": {
        "kilometers": {
            "estimated_diameter_min": 0.0201629919,
            "estimated_diameter_max": 0.0450858206
        },
        "meters": {
            "estimated_diameter_min": 20.1629919443,
            "estimated_diameter_max": 45.0858206172
        },
        "miles": {
            "estimated_diameter_min": 0.0125286985,
            "estimated_diameter_max": 0.0280150214
        },
        "feet": {
            "estimated_diameter_min": 66.1515504905,
            "estimated_diameter_max": 147.9193637137
        }
    },
    "is_potentially_hazardous_asteroid": false,
    "close_approach_data": [
        {
            "close_approach_date": "2019-10-05",
            "close_approach_date_full": "2019-Oct-05 18:07",
            "epoch_date_close_approach": 1570298820000,
            "relative_velocity": {
                "kilometers_per_second": "4.011958623",
                "kilometers_per_hour": "14443.0510427765",
                "miles_per_hour": "8974.3502437741"
            },
            "miss_distance": {
                "astronomical": "0.1207017164",
                "lunar": "46.9529676796",
                "kilometers": "18056719.678784068",
                "miles": "11219925.3335454184"
            },
            "orbiting_body": "Earth"
        }
    ],
    "orbital_data": {
        "orbit_id": "4",
        "orbit_determination_date": "2019-10-20 06:04:45",
        "first_observation_date": "2019-09-26",
        "last_observation_date": "2019-10-19",
        "data_arc_in_days": 23,
        "observations_used": 100,
        "orbit_uncertainty": "7",
        "minimum_orbit_intersection": ".117961",
        "jupiter_tisserand_invariant": "3.797",
        "epoch_osculation": "2459000.5",
        "eccentricity": ".4221243509678925",
        "semi_major_axis": "1.932777715032317",
        "inclination": "1.763938490253333",
        "ascending_node_longitude": "172.9772010497386",
        "orbital_period": "981.4570323720569",
        "perihelion_distance": "1.116905176509094",
        "perihelion_argument": "200.5396555120816",
        "aphelion_distance": "2.74865025355554",
        "perihelion_time": "2458765.279917886947",
        "mean_anomaly": "86.27910012121488",
        "mean_motion": ".3668015900094228",
        "equinox": "J2000",
        "orbit_class": {
            "orbit_class_type": "AMO",
            "orbit_class_description": "Near-Earth asteroid orbits similar to that of 1221 Amor",
            "orbit_class_range": "1.017 AU < q (perihelion) < 1.3 AU"
        }
    },
    "is_sentry_object": false
}